{
  "norad_id": 58296,
  "name": "PELICAN-1",
  "history": [
    {
      "epoch": "2026-03-28T04:48:12.165120",
      "apogee_km": 384.92485126066913,
      "perigee_km": 372.24073146513456,
      "latitude_deg": -32.19211650862036,
      "longitude_deg": 28.813516800059006,
      "semi_major_axis_km": 6756.719791362902,
      "eccentricity": 0.00093863,
      "inclination_deg": 97.3996,
      "raan_deg": 182.8276,
      "arg_perigee_deg": 241.6544,
      "mean_anomaly_deg": 118.3768,
      "mean_motion_rev_day": 15.6314368
    }
  ]
}